OBJECT_NAME,OBJECT_ID,EPOCH,MEAN_MOTION,ECCENTRICITY,INCLINATION,RA_OF_ASC_NODE,ARG_OF_PERICENTER,MEAN_ANOMALY,EPHEMERIS_TYPE,CLASSIFICATION_TYPE,NORAD_CAT_ID,ELEMENT_SET_NO,REV_AT_EPOCH,BSTAR,MEAN_MOTION_DOT,MEAN_MOTION_DDOT
BEIDOU-2 IGSO-5 (C10),2011-073A,2026-07-02T17:30:18.330912,1.00270596,.01145273,47.6496,271.3544,222.0502,141.5350,0,U,37948,999,5329,0,-.128E-5,0
LUCH 5A (SDCM/PRN 140),2011-074B,2026-07-15T10:44:29.613408,1.00273119,.0002635,8.8235,73.3905,60.7728,127.2423,0,U,37951,999,5333,0,-.64E-6,0
BEIDOU-2 G5 (C05),2012-008A,2026-07-15T20:29:19.318848,1.00270397,.0007303,3.6427,69.5109,268.5441,321.6262,0,U,38091,999,5265,0,.45E-6,0
BEIDOU-2 M3 (C11),2012-018A,2026-07-13T11:59:29.452416,1.86229839,.00209873,55.7337,303.9888,272.3154,87.4648,0,U,38250,999,9643,0,-.69E-6,0
BEIDOU-2 M4 (C12),2012-018B,2026-07-13T23:15:17.614368,1.86229366,.0012126,55.6331,303.1847,272.3588,87.5259,0,U,38251,999,9644,0,-.68E-6,0
SES-5 (EGNOS/PRN 136),2012-036A,2026-07-15T20:14:08.502144,1.00271333,.00019665,0.0450,321.8811,151.4519,128.8610,0,U,38652,999,4474,0,.23E-6,0
BEIDOU-2 M6 (C14),2012-050B,2026-07-15T06:56:47.839776,1.86230879,.0012896,56.5688,61.9653,1.6150,358.4640,0,U,38775,999,9383,0,-.42E-6,0
GSAT-10 (GAGAN/PRN 128),2012-051B,2026-07-15T22:19:02.878752,1.00272779,.00074138,0.0894,264.6103,189.6517,257.2575,0,U,38779,999,5038,0,-.175E-5,0
GPS BIIF-3  (PRN 24),2012-053A,2026-07-14T17:41:43.071648,2.00567894,.01819929,53.5896,142.4706,66.2134,295.6400,0,U,38833,999,9999,0,.2E-7,0
GSAT0103 (GALILEO-FM3),2012-055A,2026-07-13T06:51:10.050336,1.70473329,.0003756,55.8215,100.8292,311.8113,48.1723,0,U,38857,999,8545,0,-.3E-6,0
BEIDOU-2 G6 (C02),2012-059A,2026-07-15T18:53:40.502112,1.00273617,.00087439,4.4912,73.2081,327.1453,260.6814,0,U,38953,999,5019,0,-.188E-5,0
LUCH 5B (SDCM/PRN 125),2012-061A,2026-07-15T23:04:54.121728,1.00270333,.00039053,10.5442,49.5910,147.1555,67.0004,0,U,38977,999,4989,0,-.152E-5,0
COSMOS 2485 (747),2013-019A,2026-07-15T01:34:27.472800,2.13103174,.00226531,65.4351,72.6696,231.1274,128.7466,0,U,39155,999,10287,0,-.9E-7,0
GPS BIIF-4  (PRN 27),2013-023A,2026-07-15T14:27:10.507680,2.00563312,.0141388,54.4824,267.8149,51.1134,310.2184,0,U,39166,999,9645,0,-.9E-7,0
IRNSS-1A,2013-034A,2026-07-10T17:17:25.712736,1.00281941,.0017567,35.7704,63.5328,183.4462,356.2994,0,U,39199,999,4760,0,.47E-6,0
GPS BIIF-5  (PRN 30),2014-008A,2026-07-15T14:29:46.847616,2.00561577,.00840909,53.6578,148.1607,231.5485,127.6542,0,U,39533,999,9025,0,.11E-6,0
ASTRA 5B (EGNOS/PRN 123),2014-011B,2026-07-15T22:02:04.506144,1.00268418,.00018878,0.0754,302.6402,178.4839,166.6233,0,U,39617,999,4495,0,.126E-5,0
COSMOS 2492 (754),2014-012A,2026-07-14T13:19:26.928192,2.13103205,.0010322,65.2800,313.0063,317.7862,42.1441,0,U,39620,999,9582,0,-.62E-6,0
IRNSS-1B,2014-017A,2026-07-15T17:03:00.572256,1.00275936,.00222843,28.8748,239.9111,191.7753,172.7664,0,U,39635,999,4508,0,.127E-5,0
LUCH 5V (SDCM/PRN 141),2014-023A,2026-07-15T17:14:28.678272,1.00273438,.00020774,5.2008,69.4407,84.8079,132.6532,0,U,39727,999,4464,0,-.282E-5,0
GPS BIIF-6  (PRN 06),2014-026A,2026-07-15T09:09:21.973248,2.00558840,.00381411,56.4831,330.4202,325.7796,33.9711,0,U,39741,999,8910,0,-.95E-6,0
COSMOS 2500 (755),2014-032A,2026-07-15T04:39:07.763040,2.13105781,.0008262,65.2146,312.7295,190.4247,169.5708,0,U,40001,999,9405,0,-.61E-6,0
GPS BIIF-7  (PRN 09),2014-045A,2026-07-14T23:23:28.311936,2.00560212,.0034406,55.3710,87.3578,118.3743,242.0239,0,U,40105,999,8663,0,-.25E-6,0
GSAT0201 (GALILEO 5),2014-050A,2026-07-15T10:39:36.116064,1.85519399,.16786554,48.8437,272.2762,180.5299,179.3301,0,U,40128,999,7884,0,-.31E-6,0
GSAT0202 (GALILEO 6),2014-050B,2026-07-14T01:59:01.990752,1.85520425,.1679589,48.8629,271.4179,181.1559,178.4672,0,U,40129,999,8098,0,-.18E-6,0
IRNSS-1C,2014-061A,2026-07-15T15:28:30.794304,1.00272263,.00220715,6.5876,88.3904,5.4974,154.7765,0,U,40269,999,4297,0,-.176E-5,0
GPS BIIF-8  (PRN 03),2014-068A,2026-07-14T20:13:45.283872,2.00553162,.00674067,57.0066,29.8902,72.2885,288.4955,0,U,40294,999,8576,0,-.65E-6,0
COSMOS 2501 (702K),2014-075A,2026-07-14T01:09:44.871264,2.13101105,.0022586,63.6185,189.4424,212.6579,147.2095,0,U,40315,999,9042,0,.65E-6,0
GPS BIIF-9  (PRN 26),2015-013A,2026-07-14T23:37:31.983744,2.00549648,.01103446,53.1661,203.0279,40.3791,320.4565,0,U,40534,999,8238,0,.5E-6,0
GSAT0203 (GALILEO 7),2015-017A,2026-07-14T18:46:19.723008,1.70476177,.00026409,56.7770,340.8444,255.9596,103.9964,0,U,40544,999,6967,0,-.99E-6,0
GSAT0204 (GALILEO 8),2015-017B,2026-07-15T00:54:46.748448,1.70475668,.00028058,56.7833,340.8561,234.5634,125.3958,0,U,40545,999,3272,0,-.1E-5,0
